STARLINK-3388           
1 51131U 22005AD  26167.30384957  .00000585  00000+0  54879-4 0  9995
2 51131  53.1594 216.3339 0001125  85.2421 274.8699 15.08818255243612
STARLINK-3393           
1 51132U 22005AE  26167.30751595 -.00000190  00000+0  61488-5 0  9990
2 51132  53.1593 216.3173 0001145  80.0974 280.0147 15.08829387243611
STARLINK-3356           
1 51133U 22005AF  26167.29647336  .00000092  00000+0  23900-4 0  9992
2 51133  53.1593 216.3662 0001042  80.6214 279.4896 15.08830210243614
STARLINK-3363           
1 51135U 22005AH  26167.28269668 -.00000108  00000+0  11302-4 0  9993
2 51135  53.1592 216.3242 0001209  85.3746 274.7384 15.08833443243617
STARLINK-3253           
1 51136U 22005AJ  26167.27437281 -.00000146  00000+0  89325-5 0  9994
2 51136  53.1587 216.2627 0001134  88.5143 271.5979 15.08830096243617
STARLINK-3180           
1 51137U 22005AK  26167.28174959  .00000354  00000+0  40333-4 0  9991
2 51137  53.1605 216.4314 0001241  71.2596 288.8531 15.08836439243627
STARLINK-3177           
1 51138U 22005AL  26167.28834456  .00012037  00000+0  76833-3 0  9991
2 51138  53.1710 216.4065 0001202  60.8847 299.2265 15.09066482243611
STARLINK-3172           
1 51139U 22005AM  26166.87791117 -.00000010  00000+0  17447-4 0  9998
2 51139  53.1592 218.2570 0001110  83.3291 276.7827 15.08832490243569
STARLINK-3175           
1 51140U 22005AN  26167.28639664  .00000954  00000+0  78041-4 0  9997
2 51140  53.1594 216.4214 0001126  80.1321 279.9798 15.08843005243627
STARLINK-3179           
1 51141U 22005AP  26166.86959330  .00000181  00000+0  29458-4 0  9996
2 51141  53.1592 218.2850 0001204  85.7314 274.3815 15.08832649243566
STARLINK-3369           
1 51142U 22005AQ  26167.29656819  .00025460  00000+0  10177-2 0  9994
2 51142  53.2148 190.0777 0002859 131.1802 228.9445 15.24978321243992
STARLINK-3184           
1 51143U 22005AR  26167.33335648  .00006483  00000+0  38909-3 0  9992
2 51143  53.1602 226.1876 0000353 138.6990 315.5660 15.12086258  5719
STARLINK-3185           
1 51144U 22005AS  26166.87422914  .00000174  00000+0  29048-4 0  9990
2 51144  53.1589 218.2737 0001107  84.2163 275.8954 15.08833563243563
STARLINK-3354           
1 51146U 22005AU  26167.27903046  .00000132  00000+0  26373-4 0  9999
2 51146  53.1596 216.4532 0001216  85.4705 274.6426 15.08833573243610
STARLINK-3352           
1 51147U 22005AV  26167.26476606  .00027629  00000+0  89949-3 0  9993
2 51147  53.1871 200.4963 0002277 343.8177  16.2751 15.31674947243840
STARLINK-3359           
1 51148U 22005AW  26167.30492647  .00019776  00000+0  11050-2 0  9993
2 51148  53.2146 224.9769 0002099  32.6884 327.4240 15.13518878243505
STARLINK-3360           
1 51149U 22005AX  26167.33335648  .00006003  00000+0  33278-3 0  9990
2 51149  53.1588 225.9322 0001390 152.1824 132.7035 15.15099236  5257
STARLINK-3357           
1 51150U 22005AY  26167.29274531 -.00000209  00000+0  49730-5 0  9995
2 51150  53.1595 215.9970 0001137  84.3750 275.7371 15.08831386243637
STARLINK-3364           
1 51152U 22005BA  26166.86862631 -.00001349  00000+0 -66675-4 0  9996
2 51152  53.1588 227.9033 0000958  84.5362 275.5739 15.08837204243423
USA 324                 
1 51280U 22006A   26157.08795008 -.00000058  00000+0  00000+0 0  9996
2 51280   0.7690  83.2777 0002840 165.6787 110.1567  1.00289779 16021
LUDI TANCE 1-01A (L-SA*)
1 51284U 22007A   26167.30717730  .00000549  00000+0  65120-4 0  9996
2 51284  97.8097 174.7397 0001588  90.7155 269.4244 14.88421079238344
ASCENT                  
1 51287U 21118E   26165.35864158 -.00000018  00000+0  00000+0 0  9994
2 51287   4.1657  77.2770 0004341 105.7443 253.9328  1.01225126 16294
CSG-2                   
1 51444U 22008A   26167.27495997  .00000578  00000+0  79141-4 0  9999
2 51444  97.8877 350.8858 0001457  85.2939 274.8440 14.82156578236452
STARLINK-3181           
1 51461U 22010F   26167.26887503  .00000363  00000+0  40875-4 0  9992
2 51461  53.1587 196.4921 0001241  91.2677 268.8456 15.08831710241707
STARLINK-3166           
1 51462U 22010G   26167.33335648  .00015386  00000+0  76431-3 0  9996
2 51462  53.1588 196.0472 0002002  42.8723  45.0721 15.17860860  5814
STARLINK-3419           
1 51463U 22010H   26167.33335648  .00015848  00000+0  85109-3 0  9992
2 51463  53.1591 196.1258 0002533  86.0623 103.2758 15.15087332  5764
STARLINK-3189           
1 51464U 22010J   26166.79415674  .00000033  00000+0  20194-4 0  9994
2 51464  53.1597 198.6263 0001893  66.7817 293.3374 15.08829607242132
STARLINK-3401           
1 51465U 22010K   26167.25415416  .00000147  00000+0  27359-4 0  9997
2 51465  53.1598 196.5574 0001116  91.2370 268.8749 15.08831015242208
STARLINK-3178           
1 51467U 22010M   26167.30199119 -.00003788  00000+0 -22006-3 0  9993
2 51467  53.1588 196.3436 0001394  73.5598 286.5546 15.08831638241401
STARLINK-3174           
1 51468U 22010N   26167.30934921 -.00000340  00000+0 -32606-5 0  9992
2 51468  53.1603 196.2693 0001138  87.8622 272.2500 15.08830555241405
