OBJECT_NAME,OBJECT_ID,EPOCH,MEAN_MOTION,ECCENTRICITY,INCLINATION,RA_OF_ASC_NODE,ARG_OF_PERICENTER,MEAN_ANOMALY,EPHEMERIS_TYPE,CLASSIFICATION_TYPE,NORAD_CAT_ID,ELEMENT_SET_NO,REV_AT_EPOCH,BSTAR,MEAN_MOTION_DOT,MEAN_MOTION_DDOT
STARLINK-3388,2022-005AD,2026-06-16T07:17:32.602848,15.08818255,.00011258,53.1594,216.3339,85.2421,274.8699,0,U,51131,999,24361,.54879024E-4,.585E-5,0
STARLINK-3393,2022-005AE,2026-06-16T07:22:49.378080,15.08829387,.00011454,53.1593,216.3173,80.0974,280.0147,0,U,51132,999,24361,.6148771E-5,-.19E-5,0
STARLINK-3356,2022-005AF,2026-06-16T07:06:55.298304,15.08830210,.00010424,53.1593,216.3662,80.6214,279.4896,0,U,51133,999,24361,.23900251E-4,.92E-6,0
STARLINK-3363,2022-005AH,2026-06-16T06:47:04.993152,15.08833443,.00012092,53.1592,216.3242,85.3746,274.7384,0,U,51135,999,24361,.11301652E-4,-.108E-5,0
STARLINK-3253,2022-005AJ,2026-06-16T06:35:05.810784,15.08830096,.00011347,53.1587,216.2627,88.5143,271.5979,0,U,51136,999,24361,.893248E-5,-.146E-5,0
STARLINK-3180,2022-005AK,2026-06-16T06:45:43.164576,15.08836439,.00012416,53.1605,216.4314,71.2596,288.8531,0,U,51137,999,24362,.40333165E-4,.354E-5,0
STARLINK-3177,2022-005AL,2026-06-16T06:55:12.969984,15.09066482,.00012025,53.1710,216.4065,60.8847,299.2265,0,U,51138,999,24361,.76833368E-3,.12037E-3,0
STARLINK-3172,2022-005AM,2026-06-15T21:04:11.525088,15.08832490,.000111,53.1592,218.2570,83.3291,276.7827,0,U,51139,999,24356,.17447E-4,-.1E-6,0
STARLINK-3175,2022-005AN,2026-06-16T06:52:24.669696,15.08843005,.00011262,53.1594,216.4214,80.1321,279.9798,0,U,51140,999,24362,.78041168E-4,.954E-5,0
STARLINK-3179,2022-005AP,2026-06-15T20:52:12.861120,15.08832649,.0001204,53.1592,218.2850,85.7314,274.3815,0,U,51141,999,24356,.29458E-4,.181E-5,0
STARLINK-3369,2022-005AQ,2026-06-16T07:07:03.491616,15.24978321,.00028596,53.2148,190.0777,131.1802,228.9445,0,U,51142,999,24399,.10176975E-2,.2546E-3,0
STARLINK-3184,2022-005AR,2026-06-16T08:00:01.999872,15.12086258,.00003536,53.1602,226.1876,138.6990,315.5660,0,U,51143,999,571,.38909294E-3,.6483E-4,0
STARLINK-3185,2022-005AS,2026-06-15T20:58:53.397696,15.08833563,.0001107,53.1589,218.2737,84.2163,275.8954,0,U,51144,999,24356,.29048E-4,.174E-5,0
STARLINK-3354,2022-005AU,2026-06-16T06:41:48.231744,15.08833573,.00012168,53.1596,216.4532,85.4705,274.6426,0,U,51146,999,24361,.26373205E-4,.132E-5,0
STARLINK-3352,2022-005AV,2026-06-16T06:21:15.787584,15.31674947,.00022777,53.1871,200.4963,343.8177,16.2751,0,U,51147,999,24384,.89948754E-3,.27629E-3,0
STARLINK-3359,2022-005AW,2026-06-16T07:19:05.647008,15.13518878,.00020999,53.2146,224.9769,32.6884,327.4240,0,U,51148,999,24350,.11049897E-2,.19776E-3,0
STARLINK-3360,2022-005AX,2026-06-16T08:00:01.999872,15.15099236,.00013904,53.1588,225.9322,152.1824,132.7035,0,U,51149,999,525,.33278072E-3,.6003E-4,0
STARLINK-3357,2022-005AY,2026-06-16T07:01:33.194784,15.08831386,.0001137,53.1595,215.9970,84.3750,275.7371,0,U,51150,999,24363,.4972989E-5,-.209E-5,0
STARLINK-3364,2022-005BA,2026-06-15T20:50:49.313184,15.08837204,.0000958,53.1588,227.9033,84.5362,275.5739,0,U,51152,999,24342,-.66675E-4,-.1349E-4,0
USA 324,2022-006A,2026-06-06T02:06:38.886912,1.00289779,.000284,0.7690,83.2777,165.6787,110.1567,0,U,51280,999,1602,0,-.58E-6,0
LUDI TANCE 1-01A (L-SAR 01A),2022-007A,2026-06-16T07:22:20.118720,14.88421079,.00015883,97.8097,174.7397,90.7155,269.4244,0,U,51284,999,23834,.65119678E-4,.549E-5,0
ASCENT,2021-118E,2026-06-14T08:36:26.632512,1.01225126,.00043411,4.1657,77.2770,105.7443,253.9328,0,U,51287,999,1629,0,-.18E-6,0
CSG-2,2022-008A,2026-06-16T06:35:56.541408,14.82156578,.00014574,97.8877,350.8858,85.2939,274.8440,0,U,51444,999,23645,.79140689E-4,.578E-5,0
STARLINK-3181,2022-010F,2026-06-16T06:27:10.802592,15.08831710,.00012413,53.1587,196.4921,91.2677,268.8456,0,U,51461,999,24170,.40875368E-4,.363E-5,0
STARLINK-3166,2022-010G,2026-06-16T08:00:01.999872,15.17860860,.00020029,53.1588,196.0472,42.8723,45.0721,0,U,51462,999,581,.76430801E-3,.15386E-3,0
STARLINK-3419,2022-010H,2026-06-16T08:00:01.999872,15.15087332,.0002533,53.1591,196.1258,86.0623,103.2758,0,U,51463,999,576,.85109086E-3,.15848E-3,0
STARLINK-3189,2022-010J,2026-06-15T19:03:35.142336,15.08829607,.00018932,53.1597,198.6263,66.7817,293.3374,0,U,51464,999,24213,.20193636E-4,.33E-6,0
STARLINK-3401,2022-010K,2026-06-16T06:05:58.919424,15.08831015,.00011167,53.1598,196.5574,91.2370,268.8749,0,U,51465,999,24220,.27358868E-4,.147E-5,0
STARLINK-3178,2022-010M,2026-06-16T07:14:52.038816,15.08831638,.00013948,53.1588,196.3436,73.5598,286.5546,0,U,51467,999,24140,-.22006468E-3,-.3788E-4,0
STARLINK-3174,2022-010N,2026-06-16T07:25:27.771744,15.08830555,.0001138,53.1603,196.2693,87.8622,272.2500,0,U,51468,999,24140,-.3260559E-5,-.34E-5,0
